STARLINK-2022           
1 47643U 21012Z   23321.48323106  .00005736  00000+0  40370-3 0  9995
2 47643  53.0558 236.9226 0001978  86.1556 273.9659 15.06397531152658
